NORAD_CAT_ID,OBJECT_NAME,OBJECT_TYPE,EPOCH,MEAN_MOTION,ECCENTRICITY,INCLINATION,RA_OF_ASC_NODE,ARG_OF_PERICENTER,MEAN_ANOMALY,BSTAR,MEAN_MOTION_DOT,MEAN_MOTION_DDOT,TLE_LINE0,TLE_LINE1,TLE_LINE2,SEMIMAJOR_AXIS,PERIOD,APOGEE,PERIGEE,DECAYED
52627.0,STARLINK-3992,PAYLOAD,2023-09-04 05:23:06,15.08836566,0.0001136,53.2168,67.7845,79.7793,280.3327,9.388e-05,1.206e-05,0.0,0 STARLINK-3992,1 52627U 22052AF  23247.22437730  .00001206  00000-0  93880-4 0  9990,2 52627  53.2168  67.7845 0001136  79.7793 280.3327 15.08836566 72865,6917.891,95.438,540.542,538.97,0.0
52627.0,STARLINK-3992,PAYLOAD,2023-09-04 11:44:38,15.08833999,0.000116,53.2167,66.5949,79.8787,280.2336,6.1872e-05,6.97e-06,0.0,0 STARLINK-3992,1 52627U 22052AF  23247.48934025  .00000697  00000-0  61872-4 0  9996,2 52627  53.2167  66.5949 0001160  79.8787 280.2336 15.08833999 72537,6917.899,95.438,540.566,538.961,0.0
52627.0,STARLINK-3992,PAYLOAD,2023-09-05 11:35:25,15.08837025,0.0001465,53.2178,62.1351,70.5833,289.5317,0.00011479,1.539e-05,0.0,0 STARLINK-3992,1 52627U 22052AF  23248.48293915  .00001539  00000-0  11479-3 0  9996,2 52627  53.2178  62.1351 0001465  70.5833 289.5317 15.08837025 73059,6917.889,95.438,540.768,538.741,0.0
52627.0,STARLINK-3992,PAYLOAD,2023-09-05 17:56:57,15.0884689,0.0001278,53.2177,60.9456,79.0213,281.0923,9.8586e-05,1.282e-05,0.0,0 STARLINK-3992,1 52627U 22052AF  23248.74789166  .00001282  00000-0  98586-4 0  9993,2 52627  53.2177  60.9456 0001278  79.0213 281.0923 15.08846890 73092,6917.859,95.437,540.608,538.84,0.0
52627.0,STARLINK-3992,PAYLOAD,2023-09-06 11:26:12,15.08838884,0.00013,53.2181,57.6749,74.4134,285.7002,0.00014009,1.942e-05,0.0,0 STARLINK-3992,1 52627U 22052AF  23249.47653558  .00001942  00000-0  14009-3 0  9999,2 52627  53.2181  57.6749 0001300  74.4134 285.7002 15.08838884 73208,6917.884,95.438,540.648,538.849,0.0
52627.0,STARLINK-3992,PAYLOAD,2023-09-07 11:16:59,15.08839069,0.0001243,53.2176,53.2147,72.2248,287.888,5.1289e-05,5.28e-06,0.0,0 STARLINK-3992,1 52627U 22052AF  23250.47013822  .00000528  00000-0  51289-4 0  9996,2 52627  53.2176  53.2147 0001243  72.2248 287.8880 15.08839069 72981,6917.883,95.438,540.608,538.888,0.0
52627.0,STARLINK-3992,PAYLOAD,2023-09-07 20:49:18,15.08842856,0.0001353,53.2186,51.4302,82.4072,277.7073,2.6168e-05,1.29e-06,0.0,0 STARLINK-3992,1 52627U 22052AF  23250.86757614  .00000129  00000-0  26168-4 0  9998,2 52627  53.2186  51.4302 0001353  82.4072 277.7073 15.08842856 73043,6917.872,95.437,540.673,538.801,0.0
52627.0,STARLINK-3992,PAYLOAD,2023-09-08 20:40:05,15.08842829,0.0001182,53.2192,46.9693,90.6807,269.4321,9.0316e-05,1.15e-05,0.0,0 STARLINK-3992,1 52627U 22052AF  23251.86117445  .00001150  00000-0  90316-4 0  9992,2 52627  53.2192  46.9693 0001182  90.6807 269.4321 15.08842829 73199,6917.872,95.437,540.554,538.919,0.0
52627.0,STARLINK-3992,PAYLOAD,2023-09-09 10:58:34,15.0883183,0.0001293,53.2198,44.2937,94.1319,265.9821,1.6378e-05,-2.7e-07,0.0,0 STARLINK-3992,1 52627U 22052AF  23252.45734467 -.00000027  00000-0  16378-4 0  9996,2 52627  53.2198  44.2937 0001293  94.1319 265.9821 15.08831830 73654,6917.905,95.438,540.665,538.876,0.0
52627.0,STARLINK-3992,PAYLOAD,2023-09-09 14:09:20,15.08833509,0.0001256,53.2197,43.6983,94.0751,266.0385,4.0924e-05,3.63e-06,0.0,0 STARLINK-3992,1 52627U 22052AF  23252.58982377  .00000363  00000-0  40924-4 0  9991,2 52627  53.2197  43.6983 0001256  94.0751 266.0385 15.08833509 73309,6917.9,95.438,540.634,538.896,0.0
52627.0,STARLINK-3992,PAYLOAD,2023-09-10 14:00:07,15.0882045,0.0001658,53.2192,39.2382,115.2325,244.8839,0.00039972,6.076e-05,0.0,0 STARLINK-3992,1 52627U 22052AF  23253.58342204  .00006076  00000-0  39972-3 0  9998,2 52627  53.2192  39.2382 0001658 115.2325 244.8839 15.08820450 73452,6917.94,95.439,540.952,538.658,0.0
52627.0,STARLINK-3992,PAYLOAD,2023-09-10 18:46:16,15.08850899,0.0001269,53.2192,38.3461,97.1999,262.9138,0.00012281,1.668e-05,0.0,0 STARLINK-3992,1 52627U 22052AF  23253.78213359  .00001668  00000-0  12281-3 0  9994,2 52627  53.2192  38.3461 0001269  97.1999 262.9138 15.08850899 73850,6917.847,95.437,540.59,538.834,0.0
52627.0,STARLINK-3992,PAYLOAD,2023-09-11 02:43:12,15.08846238,0.0001451,53.2185,36.856,77.2941,282.8213,3.8291e-05,3.22e-06,0.0,0 STARLINK-3992,1 52627U 22052AF  23254.11333779  .00000322  00000-0  38291-4 0  9997,2 52627  53.2185  36.8560 0001451  77.2941 282.8213 15.08846238 73907,6917.861,95.437,540.73,538.723,0.0
52627.0,STARLINK-3992,PAYLOAD,2023-09-11 13:50:55,15.08836398,0.0001487,53.2185,34.7762,80.4727,279.6433,5.5992e-05,6.03e-06,0.0,0 STARLINK-3992,1 52627U 22052AF  23254.57702652  .00000603  00000-0  55992-4 0  9996,2 52627  53.2185  34.7762 0001487  80.4727 279.6433 15.08836398 73606,6917.891,95.438,540.785,538.728,0.0
52627.0,STARLINK-3992,PAYLOAD,2023-09-11 17:01:41,15.08839525,0.0001351,53.2192,34.183,83.4818,276.6328,9.033e-05,1.15e-05,0.0,0 STARLINK-3992,1 52627U 22052AF  23254.70950384  .00001150  00000-0  90330-4 0  9991,2 52627  53.2192  34.1830 0001351  83.4818 276.6328 15.08839525 73995,6917.882,95.438,540.681,538.812,0.0
52627.0,STARLINK-3992,PAYLOAD,2023-09-12 13:41:41,15.0884649,0.0001314,53.2191,30.3169,82.1293,277.9848,3.9971e-05,3.48e-06,0.0,0 STARLINK-3992,1 52627U 22052AF  23255.57062184  .00000348  00000-0  39971-4 0  9991,2 52627  53.2191  30.3169 0001314  82.1293 277.9848 15.08846490 73753,6917.861,95.437,540.635,538.817,0.0
52627.0,STARLINK-3992,PAYLOAD,2023-09-12 16:52:27,15.08851182,0.0001378,53.2196,29.7228,76.482,283.6325,0.00010397,1.368e-05,0.0,0 STARLINK-3992,1 52627U 22052AF  23255.70309780  .00001368  00000-0  10397-3 0  9995,2 52627  53.2196  29.7228 0001378  76.4820 283.6325 15.08851182 74140,6917.846,95.437,540.664,538.758,0.0
52627.0,STARLINK-3992,PAYLOAD,2023-09-13 08:46:19,15.08847386,0.0001394,53.2186,26.7495,83.033,277.0821,0.00022581,3.308e-05,0.0,0 STARLINK-3992,1 52627U 22052AF  23256.36549906  .00003308  00000-0  22581-3 0  9998,2 52627  53.2186  26.7495 0001394  83.0330 277.0821 15.08847386 74240,6917.858,95.437,540.687,538.758,0.0
52627.0,STARLINK-3992,PAYLOAD,2023-09-13 13:32:28,15.08850714,0.0001343,53.2184,25.8579,82.7004,277.4141,0.00028023,4.176e-05,0.0,0 STARLINK-3992,1 52627U 22052AF  23256.56421624  .00004176  00000-0  28023-3 0  9997,2 52627  53.2184  25.8579 0001343  82.7004 277.4141 15.08850714 73909,6917.848,95.437,540.642,538.784,0.0
52627.0,STARLINK-3992,PAYLOAD,2023-09-13 18:18:37,15.08861364,0.0001217,53.2183,24.9637,94.601,265.5121,0.00032378,4.872e-05,0.0,0 STARLINK-3992,1 52627U 22052AF  23256.76292834  .00004872  00000-0  32378-3 0  9999,2 52627  53.2183  24.9637 0001217  94.6010 265.5121 15.08861364 74306,6917.815,95.436,540.522,538.838,0.0
52627.0,STARLINK-3992,PAYLOAD,2023-09-14 08:37:06,15.088282,0.0001213,53.2187,22.2888,99.3511,260.7618,-0.00016411,-2.898e-05,0.0,0 STARLINK-3992,1 52627U 22052AF  23257.35910792 -.00002898  00000-0 -16411-3 0  9993,2 52627  53.2187  22.2888 0001213  99.3511 260.7618 15.08828200 74392,6917.916,95.438,540.621,538.942,0.0
52627.0,STARLINK-3992,PAYLOAD,2023-09-14 13:23:16,15.0882606,0.0001217,53.2188,21.3978,90.4546,269.6585,-0.00016436,-2.902e-05,0.0,0 STARLINK-3992,1 52627U 22052AF  23257.55783112 -.00002902  00000-0 -16436-3 0  9992,2 52627  53.2188  21.3978 0001217  90.4546 269.6585 15.08826060 74053,6917.923,95.438,540.63,538.946,0.0
52627.0,STARLINK-3992,PAYLOAD,2023-09-14 14:58:39,15.08826769,0.0001263,53.2187,21.0997,97.5521,262.5615,-0.00015366,-2.732e-05,0.0,0 STARLINK-3992,1 52627U 22052AF  23257.62407100 -.00002732  00000-0 -15366-3 0  9992,2 52627  53.2187  21.0997 0001263  97.5521 262.5615 15.08826769 74065,6917.921,95.438,540.66,538.912,0.0
52627.0,STARLINK-3992,PAYLOAD,2023-09-15 08:27:53,15.08840154,0.0001189,53.2183,17.8263,107.2524,252.8599,6.7244e-05,7.83e-06,0.0,0 STARLINK-3992,1 52627U 22052AF  23258.35270732  .00000783  00000-0  67244-4 0  9997,2 52627  53.2183  17.8263 0001189 107.2524 252.8599 15.08840154 74549,6917.88,95.438,540.567,538.922,0.0
52627.0,STARLINK-3992,PAYLOAD,2023-09-15 13:14:03,15.0884823,0.0001203,53.2185,16.9371,97.5354,262.5775,0.00022178,3.244e-05,0.0,0 STARLINK-3992,1 52627U 22052AF  23258.55142378  .00003244  00000-0  22178-3 0  9994,2 52627  53.2185  16.9371 0001203  97.5354 262.5775 15.08848230 74200,6917.855,95.437,540.552,538.888,0.0
52627.0,STARLINK-3992,PAYLOAD,2023-09-16 08:18:41,15.08836103,0.0001159,53.2181,13.3688,98.1443,261.968,0.00011991,1.621e-05,0.0,0 STARLINK-3992,1 52627U 22052AF  23259.34631052  .00001621  00000-0  11991-3 0  9992,2 52627  53.2181  13.3688 0001159  98.1443 261.9680 15.08836103 74691,6917.892,95.438,540.559,538.956,0.0
52627.0,STARLINK-3992,PAYLOAD,2023-09-16 13:04:50,15.08838717,0.0001113,53.2182,12.4767,94.6864,265.4255,0.00013996,1.94e-05,0.0,0 STARLINK-3992,1 52627U 22052AF  23259.54502986  .00001940  00000-0  13996-3 0  9998,2 52627  53.2182  12.4767 0001113  94.6864 265.4255 15.08838717 74351,6917.884,95.438,540.519,538.979,0.0
52627.0,STARLINK-3992,PAYLOAD,2023-09-17 12:55:37,15.08851427,0.0001223,53.2182,8.0168,96.3461,263.767,0.00021416,3.123e-05,0.0,0 STARLINK-3992,1 52627U 22052AF  23260.53862502  .00003123  00000-0  21416-3 0  9993,2 52627  53.2182   8.0168 0001223  96.3461 263.7670 15.08851427 74503,6917.845,95.437,540.557,538.864,0.0
52627.0,STARLINK-3992,PAYLOAD,2023-09-18 08:00:15,15.08837791,0.0001292,53.219,4.4493,94.7403,265.3736,8.8242e-05,1.117e-05,0.0,0 STARLINK-3992,1 52627U 22052AF  23261.33351034  .00001117  00000-0  88242-4 0  9997,2 52627  53.2190   4.4493 0001292  94.7403 265.3736 15.08837791 74999,6917.887,95.438,540.646,538.858,0.0
52627.0,STARLINK-3992,PAYLOAD,2023-09-18 12:46:24,15.08843567,0.0001535,53.2202,3.5583,91.4192,268.6976,0.00017214,2.453e-05,0.0,0 STARLINK-3992,1 52627U 22052AF  23261.53222861  .00002453  00000-0  17214-3 0  9998,2 52627  53.2202   3.5583 0001535  91.4192 268.6976 15.08843567 74655,6917.869,95.437,540.796,538.673,0.0
